{"type":"FeatureCollection","features":[{"type":"Feature","id":"line-1","properties":{"lineId":"1","name":"Linea 1","color":"#e31a1c","lengthKm":3.83,"segments":1,"status":"unknown"},"geometry":{"type":"LineString","coordinates":[[12.91797,43.913746],[12.915706,43.912115],[12.915641,43.911932],[12.915518,43.911844],[12.915279,43.911725],[12.915222,43.911631],[12.916025,43.910673],[12.91596,43.910448],[12.915718,43.910047],[12.915794,43.909615],[12.915745,43.909562],[12.915687,43.909369],[12.915598,43.909227],[12.915376,43.909083],[12.915253,43.90897],[12.915279,43.908931],[12.915072,43.908775],[12.914966,43.908848],[12.914862,43.908859],[12.914782,43.90883],[12.913427,43.90978],[12.912872,43.90932],[12.912357,43.909598],[12.909003,43.90716],[12.908855,43.906984],[12.908538,43.906762],[12.907593,43.905862],[12.907045,43.906033],[12.906346,43.906137],[12.906251,43.906219],[12.906186,43.906345],[12.906119,43.906359],[12.905944,43.906494],[12.905765,43.907194],[12.905806,43.907252],[12.905784,43.907405],[12.905604,43.907883],[12.905521,43.908044],[12.905458,43.908098],[12.905325,43.908416],[12.905158,43.90888],[12.90516,43.90893],[12.905081,43.908957],[12.904049,43.910569],[12.904103,43.910738],[12.904072,43.910795],[12.904009,43.910814],[12.903938,43.910815],[12.903667,43.910947],[12.903252,43.911406],[12.903152,43.911717],[12.903646,43.913536],[12.903732,43.913624],[12.903817,43.913642],[12.90393,43.913644],[12.903986,43.913718],[12.90399,43.9138],[12.903932,43.913825],[12.903884,43.913896],[12.903822,43.914096],[12.904287,43.915879],[12.904464,43.916109],[12.904476,43.916157],[12.904441,43.916196],[12.904395,43.916213],[12.904459,43.916271],[12.904728,43.916368],[12.904718,43.916412],[12.904578,43.916542],[12.904679,43.916595],[12.904679,43.916635],[12.90467,43.916681],[12.904576,43.916729],[12.90453,43.916839],[12.906067,43.921986],[12.906152,43.922406],[12.906284,43.922367],[12.906207,43.922287],[12.906217,43.922158],[12.906284,43.922075],[12.907739,43.921038]]}},{"type":"Feature","id":"line-2","properties":{"lineId":"2","name":"Linea 2","color":"#1f78b4","lengthKm":6.26,"segments":1,"status":"unknown"},"geometry":{"type":"LineString","coordinates":[[12.907746,43.921036],[12.920612,43.911807],[12.920662,43.911715],[12.920647,43.911627],[12.920677,43.911513],[12.920766,43.911469],[12.920946,43.91146],[12.921039,43.911474],[12.927922,43.906601],[12.928122,43.906512],[12.928141,43.90641],[12.928199,43.906382],[12.928268,43.906374],[12.928295,43.906391],[12.936101,43.900955],[12.942465,43.896369],[12.949184,43.890896],[12.955886,43.885544],[12.962082,43.880968]]}},{"type":"Feature","id":"line-3","properties":{"lineId":"3","name":"Linea 3","color":"#33a02c","lengthKm":9.54,"segments":1,"status":"unknown"},"geometry":{"type":"LineString","coordinates":[[12.897202,43.921571],[12.898647,43.921721],[12.899216,43.922064],[12.901269,43.922501],[12.901707,43.922424],[12.901853,43.922069],[12.902668,43.919118],[12.902691,43.918797],[12.902906,43.916981],[12.902921,43.91635],[12.902883,43.916139],[12.90276,43.915996],[12.902721,43.914013],[12.902598,43.913399],[12.902368,43.912679],[12.901591,43.911549],[12.901614,43.911433],[12.901553,43.911305],[12.901538,43.91115],[12.901676,43.910923],[12.901661,43.910801],[12.902176,43.910707],[12.902168,43.910563],[12.901968,43.910403],[12.901668,43.910331],[12.900638,43.910231],[12.899408,43.910159],[12.898202,43.909605],[12.897271,43.908531],[12.896949,43.907578],[12.896226,43.90718],[12.891699,43.904444],[12.891253,43.903934],[12.890876,43.903713],[12.88847,43.901664],[12.887717,43.901425],[12.886533,43.901276],[12.885895,43.901209],[12.884827,43.901509],[12.883835,43.902494],[12.882782,43.905491],[12.88066,43.907562],[12.879423,43.908548],[12.878447,43.908797],[12.877209,43.908758],[12.876341,43.908232],[12.875864,43.907667],[12.875157,43.906925],[12.873366,43.904926],[12.872943,43.904571],[12.872136,43.904244],[12.871921,43.904017],[12.871644,43.903381],[12.871536,43.903303],[12.87136,43.903325],[12.87076,43.903674],[12.86993,43.904034],[12.869845,43.903901],[12.86973,43.903591],[12.869653,43.90353],[12.869546,43.903098],[12.868931,43.903187],[12.868838,43.903109],[12.868239,43.90178],[12.868039,43.901691],[12.867301,43.901802],[12.866117,43.902057],[12.865364,43.901979],[12.862289,43.900766],[12.862051,43.900833],[12.861959,43.900971],[12.861882,43.901027],[12.860437,43.900356],[12.860145,43.900273],[12.859883,43.900379],[12.857239,43.901658],[12.856962,43.901614],[12.856593,43.901464],[12.855302,43.900689],[12.854649,43.900373],[12.852896,43.899819],[12.852527,43.899598],[12.851943,43.898534],[12.851205,43.898003],[12.848607,43.897737],[12.847854,43.89777],[12.847285,43.898867],[12.84672,43.898858],[12.84652,43.898792],[12.845959,43.898864],[12.845536,43.898875],[12.845021,43.89867],[12.844391,43.898144],[12.844114,43.897967],[12.842361,43.89744],[12.842023,43.897169],[12.841239,43.896975],[12.840186,43.896947],[12.838318,43.896504],[12.837995,43.896222],[12.837165,43.895125],[12.836666,43.893807],[12.838803,43.894809],[12.839002,43.895208],[12.83954,43.895125],[12.840301,43.895518]]}},{"type":"Feature","id":"line-4","properties":{"lineId":"4","name":"Linea 4","color":"#a6c78a","lengthKm":2.58,"segments":1,"status":"unknown"},"geometry":{"type":"LineString","coordinates":[[12.915068,43.908788],[12.915083,43.908584],[12.916836,43.907349],[12.918835,43.906424],[12.918765,43.906269],[12.918496,43.906064],[12.91782,43.905803],[12.917551,43.904796],[12.917682,43.904685],[12.91822,43.90489],[12.919726,43.903477],[12.920333,43.902935],[12.921479,43.90227],[12.921771,43.902265],[12.921894,43.90217],[12.921779,43.902071],[12.92041,43.901539],[12.921625,43.899268],[12.922086,43.899351],[12.922317,43.898897],[12.92297,43.897723],[12.925138,43.894034],[12.925653,43.893109],[12.92543,43.892699],[12.925268,43.892283],[12.925653,43.89204],[12.926206,43.891801],[12.926883,43.891945]]}},{"type":"Feature","id":"line-5","properties":{"lineId":"5","name":"Linea 5","color":"#1f78b4","lengthKm":6.21,"segments":2,"status":"unknown"},"geometry":{"type":"MultiLineString","coordinates":[[[12.907893,43.889644],[12.907823,43.889888],[12.907962,43.890292],[12.908077,43.890558],[12.908438,43.891428],[12.908177,43.8915],[12.907739,43.890541],[12.907585,43.890314],[12.907185,43.890286],[12.906194,43.891173],[12.905341,43.891372],[12.903019,43.891716],[12.902942,43.891621],[12.902704,43.891555],[12.902604,43.891378],[12.902128,43.891284],[12.901543,43.891367],[12.901197,43.89176],[12.900959,43.891849],[12.899145,43.891921],[12.899099,43.891882],[12.899014,43.891721],[12.898907,43.891837],[12.898661,43.891948],[12.898607,43.891998],[12.898169,43.89217],[12.898046,43.892031],[12.897608,43.891732],[12.897385,43.891799],[12.897339,43.891943],[12.896755,43.89243],[12.897231,43.892768],[12.89604,43.893643],[12.895832,43.893516],[12.89564,43.893638],[12.895079,43.893649],[12.894856,43.893815]],[[12.931256,43.90358],[12.931794,43.903945],[12.931087,43.904452],[12.929104,43.905723],[12.927963,43.906183],[12.925768,43.906706],[12.923908,43.90682],[12.92252,43.906714],[12.920779,43.906238],[12.920218,43.905834],[12.91747,43.904599],[12.917201,43.904693],[12.915349,43.904112],[12.914134,43.902195],[12.913873,43.901835],[12.913327,43.900861],[12.913058,43.900512],[12.913219,43.900362],[12.911774,43.897969],[12.910606,43.896169],[12.910598,43.895992],[12.910529,43.895732],[12.910314,43.895477],[12.910145,43.895432],[12.910083,43.895272],[12.909945,43.895039],[12.909906,43.894928],[12.90986,43.89489],[12.909238,43.893909],[12.908554,43.892796],[12.908684,43.892718],[12.908684,43.892596],[12.908815,43.892452],[12.908823,43.892369],[12.908469,43.892209],[12.9085,43.891959],[12.908707,43.891732],[12.908615,43.891516],[12.908423,43.8915],[12.907839,43.88991],[12.907885,43.889594],[12.907885,43.8895],[12.90777,43.889417],[12.907577,43.889367],[12.90747,43.888985],[12.90757,43.888204],[12.907877,43.88796],[12.908346,43.887705],[12.908869,43.887605],[12.909399,43.887633],[12.909514,43.887716],[12.909576,43.887638],[12.909545,43.887544],[12.909568,43.887433],[12.909507,43.887173],[12.909222,43.887046],[12.908976,43.887035],[12.908415,43.88668],[12.908092,43.885976],[12.907516,43.885118],[12.907185,43.884697],[12.906863,43.883749],[12.906486,43.883001],[12.905141,43.882071]]]}},{"type":"Feature","id":"line-6","properties":{"lineId":"6","name":"Linea 6","color":"#f6e953","lengthKm":1.15,"segments":1,"status":"unknown"},"geometry":{"type":"LineString","coordinates":[[12.907579,43.905852],[12.909217,43.905482],[12.908519,43.90299],[12.90755,43.899684],[12.90747,43.899592],[12.907262,43.899094],[12.907228,43.898421],[12.907504,43.897918],[12.907971,43.89739],[12.908156,43.89742],[12.908225,43.897204],[12.908657,43.897424]]}},{"type":"Feature","id":"line-7","properties":{"lineId":"7","name":"Linea 7","color":"#d029b2","lengthKm":5.36,"segments":2,"status":"unknown"},"geometry":{"type":"MultiLineString","coordinates":[[[12.899393,43.893095],[12.899255,43.892571],[12.898863,43.892148],[12.898298,43.892139],[12.896026,43.893618],[12.895807,43.893535],[12.894723,43.894333],[12.894516,43.894233],[12.893536,43.894998],[12.893282,43.895039],[12.891518,43.893701],[12.888947,43.891807],[12.889051,43.891533],[12.88912,43.891408],[12.888924,43.891234],[12.88867,43.891167],[12.888232,43.891101],[12.888082,43.891142],[12.887333,43.89061],[12.886848,43.890203],[12.88603,43.889871],[12.885003,43.88978],[12.884369,43.889846],[12.884116,43.889771],[12.883712,43.889738],[12.883712,43.889996],[12.883528,43.890162],[12.87963,43.891375],[12.879815,43.890743],[12.879584,43.890527],[12.877267,43.889215],[12.877036,43.888924],[12.87661,43.888658],[12.876298,43.888442],[12.875791,43.888251],[12.875434,43.888018],[12.875284,43.887868],[12.875145,43.88781],[12.87473,43.887927],[12.874546,43.887943],[12.873485,43.887627],[12.873312,43.88786],[12.873139,43.888143]],[[12.904553,43.903808],[12.904086,43.903439],[12.903797,43.903343],[12.903694,43.903214],[12.903515,43.903052],[12.901117,43.901329],[12.900563,43.901167],[12.900459,43.901171],[12.900448,43.901079],[12.900361,43.900942],[12.900592,43.900809],[12.900754,43.900764],[12.900725,43.900668],[12.90054,43.900394],[12.900062,43.90007],[12.900027,43.899999],[12.899762,43.899758],[12.899589,43.899866],[12.89854,43.899052],[12.899036,43.898504],[12.899601,43.89818],[12.897018,43.896219],[12.898055,43.895504],[12.897883,43.89533],[12.898044,43.895139],[12.898401,43.894931],[12.898517,43.894134],[12.898747,43.893452],[12.89937,43.89312],[12.899393,43.892871],[12.89967,43.892945],[12.908017,43.891707],[12.90826,43.891466]]]}},{"type":"Feature","id":"line-8","properties":{"lineId":"8","name":"Linea 8","color":"#cc4ec3","lengthKm":1.8,"segments":1,"status":"unknown"},"geometry":{"type":"LineString","coordinates":[[12.907305,43.905923],[12.906198,43.904981],[12.904645,43.903818],[12.901155,43.901348],[12.900463,43.901171],[12.900175,43.901201],[12.900037,43.90111],[12.89996,43.901129],[12.896255,43.898285],[12.896032,43.898418],[12.895363,43.89808],[12.895248,43.897814],[12.895225,43.897271],[12.894664,43.896756],[12.894118,43.896119],[12.89421,43.896064],[12.894602,43.896092],[12.894687,43.895765],[12.893618,43.895255],[12.893672,43.895095],[12.893565,43.895]]}},{"type":"Feature","id":"line-9","properties":{"lineId":"9","name":"Linea 9","color":"#daa7ce","lengthKm":2.25,"segments":1,"status":"unknown"},"geometry":{"type":"LineString","coordinates":[[12.904603,43.903796],[12.904111,43.903397],[12.903849,43.903336],[12.903465,43.903021],[12.903165,43.902893],[12.90295,43.902644],[12.901244,43.901353],[12.900383,43.901165],[12.899768,43.901431],[12.899545,43.901603],[12.89657,43.903669],[12.896401,43.903801],[12.895794,43.903425],[12.894118,43.902134],[12.893933,43.902162],[12.89378,43.902035],[12.893672,43.901808],[12.892742,43.900705],[12.892104,43.899365],[12.891535,43.898446],[12.890717,43.897947],[12.889233,43.897648],[12.888357,43.897438],[12.88705,43.896684],[12.886512,43.896407],[12.885959,43.896263],[12.885789,43.896053],[12.885098,43.895632]]}},{"type":"Feature","id":"line-10","properties":{"lineId":"10","name":"Linea 10","color":"#1c5119","lengthKm":2.45,"segments":1,"status":"unknown"},"geometry":{"type":"LineString","coordinates":[[12.895571,43.909868],[12.895013,43.90924],[12.893737,43.907711],[12.891877,43.906244],[12.890678,43.905635],[12.890348,43.905446],[12.889971,43.905302],[12.889656,43.90543],[12.889256,43.905341],[12.889233,43.905203],[12.889302,43.904976],[12.88964,43.90487],[12.890332,43.904499],[12.890309,43.904411],[12.890317,43.904339],[12.890532,43.904366],[12.890709,43.904267],[12.890863,43.904134],[12.890909,43.904034],[12.891055,43.904045],[12.892454,43.903009],[12.892546,43.902766],[12.890486,43.900944],[12.889802,43.900606],[12.888472,43.900307],[12.886858,43.90003],[12.885859,43.899731],[12.88539,43.89942],[12.885174,43.899409],[12.885044,43.899332],[12.885036,43.89921],[12.883307,43.898097],[12.883161,43.897748],[12.883261,43.897338],[12.883875,43.896662],[12.884975,43.895554]]}},{"type":"Feature","id":"line-11","properties":{"lineId":"11","name":"Linea 11","color":"#a0100e","lengthKm":2.64,"segments":1,"status":"unknown"},"geometry":{"type":"LineString","coordinates":[[12.906011,43.90641],[12.905375,43.906358],[12.902413,43.906993],[12.902372,43.907134],[12.901665,43.907193],[12.901399,43.907355],[12.901183,43.907429],[12.90062,43.907392],[12.900199,43.907259],[12.897115,43.908012],[12.897002,43.90802],[12.89691,43.90785],[12.894583,43.908322],[12.894593,43.908433],[12.894429,43.9085],[12.894686,43.908854],[12.894522,43.908832],[12.894317,43.908706],[12.894194,43.908596],[12.893989,43.908662],[12.893394,43.908662],[12.89198,43.908891],[12.889561,43.909415],[12.889489,43.910449],[12.887388,43.910338],[12.885226,43.910493],[12.883427,43.910785],[12.882295,43.910862],[12.881347,43.910781],[12.880373,43.91067],[12.878933,43.910615],[12.877601,43.910611],[12.877462,43.910722],[12.877093,43.910722],[12.877093,43.910944]]}},{"type":"Feature","id":"line-12","properties":{"lineId":"12","name":"Linea 12","color":"#fdbf6f","lengthKm":1.53,"segments":1,"status":"unknown"},"geometry":{"type":"LineString","coordinates":[[12.869384,43.910242],[12.869081,43.910403],[12.869031,43.910356],[12.867063,43.911473],[12.866501,43.911],[12.866898,43.909489],[12.868807,43.909448],[12.869377,43.909188],[12.869355,43.909079],[12.869182,43.908975],[12.86893,43.908752],[12.869333,43.908856],[12.869362,43.908783],[12.869355,43.908711],[12.869831,43.908815],[12.870429,43.908913],[12.872194,43.909474],[12.874464,43.909541],[12.874565,43.909303],[12.874587,43.908929],[12.874962,43.908498],[12.875156,43.908378],[12.8753,43.908176],[12.87548,43.90748],[12.875999,43.907823]]}},{"type":"Feature","id":"line-13","properties":{"lineId":"13","name":"Linea 13","color":"#00a0b0","lengthKm":6.16,"segments":1,"status":"unknown"},"geometry":{"type":"LineString","coordinates":[[12.860561,43.916146],[12.860814,43.915962],[12.860957,43.915678],[12.861161,43.915376],[12.862465,43.914608],[12.862446,43.914224],[12.862534,43.913896],[12.863299,43.913478],[12.863403,43.913463],[12.867025,43.911473],[12.866454,43.911028],[12.866831,43.909434],[12.868716,43.909405],[12.86925,43.909185],[12.869259,43.909115],[12.868908,43.908811],[12.868918,43.908723],[12.869086,43.90872],[12.86926,43.908766],[12.869358,43.908676],[12.871013,43.909086],[12.871454,43.908336],[12.871665,43.907899],[12.87178,43.907841],[12.872051,43.907379],[12.872499,43.907452],[12.872764,43.907474],[12.873009,43.907599],[12.873141,43.907695],[12.873195,43.907842],[12.873328,43.907947],[12.873481,43.907958],[12.873702,43.907924],[12.874908,43.908465],[12.87599,43.908703],[12.877652,43.908931],[12.878909,43.908873],[12.880163,43.908417],[12.88088,43.907912],[12.882123,43.907113],[12.883039,43.906667],[12.88494,43.906484],[12.886083,43.906488],[12.887204,43.906453],[12.888024,43.906357],[12.888041,43.906387],[12.888134,43.906423],[12.888218,43.906395],[12.888284,43.906366],[12.888301,43.906242],[12.888378,43.906227],[12.889431,43.905587],[12.889607,43.905462],[12.88955,43.905418],[12.889344,43.905388],[12.889252,43.905309],[12.889249,43.905211],[12.889305,43.905148],[12.889291,43.905036],[12.889375,43.904995],[12.889703,43.904924],[12.889776,43.904882],[12.890283,43.904446],[12.890386,43.904376],[12.890511,43.904365],[12.890703,43.904291],[12.891008,43.904032],[12.89117,43.90397],[12.891256,43.903899],[12.891383,43.903987],[12.892767,43.903024],[12.894034,43.902186],[12.895302,43.901161],[12.897219,43.899869],[12.897763,43.899553],[12.898261,43.899199],[12.898404,43.899167],[12.89856,43.899106],[12.898572,43.898956],[12.900746,43.897403],[12.901181,43.897338],[12.902178,43.897275],[12.902576,43.897231],[12.909171,43.896098],[12.909837,43.896016],[12.910154,43.89609],[12.910507,43.896139],[12.910596,43.895978],[12.91074,43.895921],[12.914454,43.896057],[12.919495,43.896851]]}},{"type":"Feature","id":"line-A","properties":{"lineId":"A","name":"Linea A","color":"#ff7f00","lengthKm":6.27,"segments":1,"status":"unknown"},"geometry":{"type":"LineString","coordinates":[[12.860586,43.916123],[12.860833,43.915974],[12.860953,43.915658],[12.861098,43.915455],[12.861292,43.915321],[12.861703,43.915096],[12.862252,43.914723],[12.862443,43.914545],[12.862476,43.914422],[12.862448,43.914131],[12.862493,43.913943],[12.862751,43.913753],[12.863329,43.913479],[12.86341,43.913477],[12.866997,43.911492],[12.866458,43.911051],[12.866852,43.909445],[12.867522,43.909399],[12.868314,43.909369],[12.868802,43.909375],[12.868994,43.90931],[12.869178,43.909194],[12.869263,43.909058],[12.869114,43.908994],[12.868965,43.908775],[12.869141,43.908754],[12.869296,43.908816],[12.86933,43.908796],[12.869358,43.908669],[12.871025,43.90907],[12.871658,43.907952],[12.871819,43.907811],[12.871883,43.9076],[12.872031,43.907452],[12.872056,43.907394],[12.872352,43.907472],[12.872736,43.907468],[12.8729,43.907516],[12.873104,43.907653],[12.87328,43.907907],[12.873486,43.907965],[12.873776,43.907933],[12.874895,43.908454],[12.875595,43.908611],[12.876899,43.908851],[12.87792,43.908928],[12.87884,43.908884],[12.879414,43.908747],[12.880114,43.908383],[12.881941,43.907211],[12.882685,43.906821],[12.883256,43.906612],[12.884435,43.906487],[12.886392,43.906492],[12.887227,43.90647],[12.888055,43.906348],[12.888101,43.906394],[12.88821,43.906409],[12.888258,43.906379],[12.88827,43.906297],[12.88832,43.906223],[12.889219,43.90574],[12.889501,43.905519],[12.889806,43.905336],[12.889964,43.905291],[12.890148,43.905325],[12.890264,43.905389],[12.890367,43.905291],[12.890116,43.905157],[12.890026,43.905025],[12.890081,43.904927],[12.890223,43.904792],[12.891131,43.904175],[12.892346,43.90331],[12.893108,43.902804],[12.893973,43.902169],[12.89406,43.902143],[12.89413,43.902155],[12.894184,43.902118],[12.894204,43.902074],[12.894196,43.902026],[12.894227,43.901965],[12.895259,43.901189],[12.896904,43.900065],[12.897625,43.899633],[12.898237,43.899219],[12.898414,43.899165],[12.898501,43.899118],[12.898689,43.898899],[12.899769,43.89809],[12.900687,43.897446],[12.901387,43.897335],[12.902546,43.89725],[12.90311,43.897103],[12.904366,43.896821],[12.905332,43.896685],[12.907814,43.896288],[12.909741,43.896026],[12.910044,43.896048],[12.910208,43.896103],[12.910282,43.896145],[12.910449,43.896124],[12.910565,43.896051],[12.910606,43.89597],[12.910873,43.895906],[12.911924,43.895918],[12.913744,43.896024],[12.914388,43.896042],[12.918982,43.896743],[12.919499,43.896865],[12.921164,43.897324]]}},{"type":"Feature","id":"line-B","properties":{"lineId":"B","name":"Linea B","color":"#68532b","lengthKm":3.03,"segments":1,"status":"unknown"},"geometry":{"type":"LineString","coordinates":[[12.899402,43.890068],[12.899944,43.889725],[12.900314,43.889588],[12.900601,43.889518],[12.900719,43.889503],[12.900735,43.889335],[12.900689,43.889166],[12.900597,43.889069],[12.900705,43.888978],[12.901587,43.888793],[12.903263,43.888275],[12.904976,43.887779],[12.906413,43.887607],[12.906814,43.887525],[12.906917,43.887424],[12.907047,43.887358],[12.907304,43.887305],[12.907625,43.887331],[12.907848,43.887455],[12.908316,43.887505],[12.908577,43.887482],[12.908787,43.887428],[12.90887,43.887361],[12.908865,43.887107],[12.909052,43.887042],[12.909276,43.887118],[12.909446,43.887138],[12.909513,43.887253],[12.90957,43.887517],[12.9102,43.887926],[12.910958,43.888194],[12.911802,43.888432],[12.91241,43.888522],[12.912714,43.888513],[12.912999,43.888481],[12.91306,43.888369],[12.913218,43.888307],[12.913403,43.888314],[12.913687,43.888428],[12.914048,43.888408],[12.914573,43.888445],[12.915736,43.888894],[12.916373,43.889115],[12.916768,43.889187],[12.917002,43.88914],[12.918259,43.888796],[12.91896,43.888823],[12.919167,43.888857],[12.91932,43.888815],[12.919422,43.888735],[12.919463,43.888661],[12.919647,43.888667],[12.919731,43.888693],[12.919827,43.888801],[12.920051,43.888901],[12.920225,43.888948],[12.921586,43.889028],[12.921696,43.889003],[12.921876,43.889006],[12.921983,43.889046],[12.922813,43.889002],[12.923475,43.888901],[12.924141,43.888701],[12.925145,43.888284],[12.92594,43.888021],[12.926722,43.888008],[12.927074,43.888121],[12.927469,43.88834],[12.927853,43.888587],[12.928203,43.888614],[12.928431,43.888577],[12.929909,43.888025],[12.931669,43.887406],[12.932461,43.887102]]}}]}