{"type":"FeatureCollection","features":[{"type":"Feature","id":"obs-0","properties":{"id":"obs-0","category":"barriera_ciclabile","categoryLabel":"Barriera ciclabile","name":null,"osmId":"774720363","tags":{"full_id":"n774720363","osm_id":"774720363","osm_type":"node","foot":"yes","bicycle":"yes","barrier":"cycle_barrier"},"bicycleAccess":"yes","bicycleAccessLabel":"Transito consentito","maxWidthMeters":null},"geometry":{"type":"Point","coordinates":[12.906833,43.905377]}},{"type":"Feature","id":"obs-1","properties":{"id":"obs-1","category":"barriera_ciclabile","categoryLabel":"Barriera ciclabile","name":null,"osmId":"1698697742","tags":{"full_id":"n1698697742","osm_id":"1698697742","osm_type":"node","foot":"yes","bicycle":"yes","barrier":"cycle_barrier"},"bicycleAccess":"yes","bicycleAccessLabel":"Transito consentito","maxWidthMeters":null},"geometry":{"type":"Point","coordinates":[12.906932,43.9054]}},{"type":"Feature","id":"obs-2","properties":{"id":"obs-2","category":"barriera_ciclabile","categoryLabel":"Barriera ciclabile","name":null,"osmId":"2600225935","tags":{"full_id":"n2600225935","osm_id":"2600225935","osm_type":"node","access":"no","foot":"yes","barrier":"cycle_barrier"},"bicycleAccess":null,"bicycleAccessLabel":"Informazione non disponibile","maxWidthMeters":null},"geometry":{"type":"Point","coordinates":[12.91755,43.90556]}},{"type":"Feature","id":"obs-3","properties":{"id":"obs-3","category":"barriera_ciclabile","categoryLabel":"Barriera ciclabile","name":null,"osmId":"2600225944","tags":{"full_id":"n2600225944","osm_id":"2600225944","osm_type":"node","access":"no","foot":"yes","barrier":"cycle_barrier"},"bicycleAccess":null,"bicycleAccessLabel":"Informazione non disponibile","maxWidthMeters":null},"geometry":{"type":"Point","coordinates":[12.917728,43.905743]}},{"type":"Feature","id":"obs-4","properties":{"id":"obs-4","category":"barriera_ciclabile","categoryLabel":"Barriera ciclabile","name":null,"osmId":"2610369005","tags":{"full_id":"n2610369005","osm_id":"2610369005","osm_type":"node","foot":"yes","bicycle":"yes","barrier":"cycle_barrier"},"bicycleAccess":"yes","bicycleAccessLabel":"Transito consentito","maxWidthMeters":null},"geometry":{"type":"Point","coordinates":[12.895136,43.897795]}},{"type":"Feature","id":"obs-5","properties":{"id":"obs-5","category":"barriera_ciclabile","categoryLabel":"Barriera ciclabile","name":null,"osmId":"2610369006","tags":{"full_id":"n2610369006","osm_id":"2610369006","osm_type":"node","foot":"yes","bicycle":"yes","barrier":"cycle_barrier"},"bicycleAccess":"yes","bicycleAccessLabel":"Transito consentito","maxWidthMeters":null},"geometry":{"type":"Point","coordinates":[12.895228,43.897851]}},{"type":"Feature","id":"obs-6","properties":{"id":"obs-6","category":"barriera_tripla","categoryLabel":"Barriera tripla","name":null,"osmId":"2774117492","tags":{"full_id":"n2774117492","osm_id":"2774117492","osm_type":"node","cycle_barrier:installation":"fixed","cycle_barrier":"triple","foot":"yes","bicycle":"yes","barrier":"cycle_barrier"},"bicycleAccess":"yes","bicycleAccessLabel":"Transito consentito","maxWidthMeters":null},"geometry":{"type":"Point","coordinates":[12.897998,43.910782]}},{"type":"Feature","id":"obs-7","properties":{"id":"obs-7","category":"barriera_ciclabile","categoryLabel":"Barriera ciclabile","name":null,"osmId":"3607581070","tags":{"full_id":"n3607581070","osm_id":"3607581070","osm_type":"node","foot":"yes","bicycle":"yes","barrier":"cycle_barrier"},"bicycleAccess":"yes","bicycleAccessLabel":"Transito consentito","maxWidthMeters":null},"geometry":{"type":"Point","coordinates":[12.906196,43.904997]}},{"type":"Feature","id":"obs-8","properties":{"id":"obs-8","category":"barriera_ciclabile","categoryLabel":"Barriera ciclabile","name":null,"osmId":"3607581074","tags":{"full_id":"n3607581074","osm_id":"3607581074","osm_type":"node","foot":"yes","bicycle":"yes","barrier":"cycle_barrier"},"bicycleAccess":"yes","bicycleAccessLabel":"Transito consentito","maxWidthMeters":null},"geometry":{"type":"Point","coordinates":[12.906749,43.905317]}},{"type":"Feature","id":"obs-9","properties":{"id":"obs-9","category":"barriera_ciclabile","categoryLabel":"Barriera ciclabile","name":null,"osmId":"3607581076","tags":{"full_id":"n3607581076","osm_id":"3607581076","osm_type":"node","foot":"yes","bicycle":"yes","barrier":"cycle_barrier"},"bicycleAccess":"yes","bicycleAccessLabel":"Transito consentito","maxWidthMeters":null},"geometry":{"type":"Point","coordinates":[12.90729,43.905653]}},{"type":"Feature","id":"obs-10","properties":{"id":"obs-10","category":"barriera_ciclabile","categoryLabel":"Barriera ciclabile","name":null,"osmId":"3607581077","tags":{"full_id":"n3607581077","osm_id":"3607581077","osm_type":"node","foot":"yes","bicycle":"yes","barrier":"cycle_barrier"},"bicycleAccess":"yes","bicycleAccessLabel":"Transito consentito","maxWidthMeters":null},"geometry":{"type":"Point","coordinates":[12.907325,43.90568]}},{"type":"Feature","id":"obs-11","properties":{"id":"obs-11","category":"chicane","categoryLabel":"Chicane","name":null,"osmId":"5378129811","tags":{"full_id":"n5378129811","osm_id":"5378129811","osm_type":"node","barrier:type":"chicane","foot":"yes","bicycle":"no","barrier":"cycle_barrier"},"bicycleAccess":"no","bicycleAccessLabel":"Transito vietato","maxWidthMeters":null},"geometry":{"type":"Point","coordinates":[12.901632,43.919521]}},{"type":"Feature","id":"obs-12","properties":{"id":"obs-12","category":"barriera_ciclabile","categoryLabel":"Barriera ciclabile","name":null,"osmId":"5378129812","tags":{"full_id":"n5378129812","osm_id":"5378129812","osm_type":"node","foot":"yes","bicycle":"yes","barrier":"cycle_barrier"},"bicycleAccess":"yes","bicycleAccessLabel":"Transito consentito","maxWidthMeters":null},"geometry":{"type":"Point","coordinates":[12.902453,43.919159]}},{"type":"Feature","id":"obs-13","properties":{"id":"obs-13","category":"barriera_ciclabile","categoryLabel":"Barriera ciclabile","name":null,"osmId":"5575521362","tags":{"full_id":"n5575521362","osm_id":"5575521362","osm_type":"node","maxwidth":"1","foot":"yes","bicycle":"dismount","barrier":"cycle_barrier"},"bicycleAccess":"dismount","bicycleAccessLabel":"Obbligo di scendere dalla bici","maxWidthMeters":"1"},"geometry":{"type":"Point","coordinates":[12.895609,43.893905]}},{"type":"Feature","id":"obs-14","properties":{"id":"obs-14","category":"barriera_ciclabile","categoryLabel":"Barriera ciclabile","name":null,"osmId":"5575521363","tags":{"full_id":"n5575521363","osm_id":"5575521363","osm_type":"node","maxwidth":"1","foot":"yes","bicycle":"dismount","barrier":"cycle_barrier"},"bicycleAccess":"dismount","bicycleAccessLabel":"Obbligo di scendere dalla bici","maxWidthMeters":"1"},"geometry":{"type":"Point","coordinates":[12.895562,43.893939]}},{"type":"Feature","id":"obs-15","properties":{"id":"obs-15","category":"barriera_ciclabile","categoryLabel":"Barriera ciclabile","name":null,"osmId":"5575521364","tags":{"full_id":"n5575521364","osm_id":"5575521364","osm_type":"node","maxwidth":"1","foot":"yes","bicycle":"dismount","barrier":"cycle_barrier"},"bicycleAccess":"dismount","bicycleAccessLabel":"Obbligo di scendere dalla bici","maxWidthMeters":"1"},"geometry":{"type":"Point","coordinates":[12.89552,43.893968]}},{"type":"Feature","id":"obs-16","properties":{"id":"obs-16","category":"barriera_ciclabile","categoryLabel":"Barriera ciclabile","name":null,"osmId":"5584395612","tags":{"full_id":"n5584395612","osm_id":"5584395612","osm_type":"node","foot":"yes","bicycle":"yes","barrier":"cycle_barrier"},"bicycleAccess":"yes","bicycleAccessLabel":"Transito consentito","maxWidthMeters":null},"geometry":{"type":"Point","coordinates":[12.906127,43.922362]}},{"type":"Feature","id":"obs-17","properties":{"id":"obs-17","category":"barriera_doppia","categoryLabel":"Barriera doppia","name":null,"osmId":"6814798137","tags":{"full_id":"n6814798137","osm_id":"6814798137","osm_type":"node","cycle_barrier:installation":"fixed","cycle_barrier":"double","barrier":"cycle_barrier"},"bicycleAccess":null,"bicycleAccessLabel":"Informazione non disponibile","maxWidthMeters":null},"geometry":{"type":"Point","coordinates":[12.916954,43.914882]}},{"type":"Feature","id":"obs-18","properties":{"id":"obs-18","category":"barriera_ciclabile","categoryLabel":"Barriera ciclabile","name":null,"osmId":"7703807210","tags":{"full_id":"n7703807210","osm_id":"7703807210","osm_type":"node","foot":"yes","bicycle":"dismount","barrier":"cycle_barrier"},"bicycleAccess":"dismount","bicycleAccessLabel":"Obbligo di scendere dalla bici","maxWidthMeters":null},"geometry":{"type":"Point","coordinates":[12.908538,43.892778]}},{"type":"Feature","id":"obs-19","properties":{"id":"obs-19","category":"barriera_ciclabile","categoryLabel":"Barriera ciclabile","name":null,"osmId":"8812774984","tags":{"full_id":"n8812774984","osm_id":"8812774984","osm_type":"node","foot":"yes","bicycle":"yes","barrier":"cycle_barrier"},"bicycleAccess":"yes","bicycleAccessLabel":"Transito consentito","maxWidthMeters":null},"geometry":{"type":"Point","coordinates":[12.892871,43.895583]}},{"type":"Feature","id":"obs-20","properties":{"id":"obs-20","category":"barriera_doppia","categoryLabel":"Barriera doppia","name":null,"osmId":"8949043330","tags":{"full_id":"n8949043330","osm_id":"8949043330","osm_type":"node","cycle_barrier:installation":"fixed","cycle_barrier":"double","bicycle":"yes","barrier":"cycle_barrier"},"bicycleAccess":"yes","bicycleAccessLabel":"Transito consentito","maxWidthMeters":null},"geometry":{"type":"Point","coordinates":[12.904263,43.903073]}},{"type":"Feature","id":"obs-21","properties":{"id":"obs-21","category":"barriera_ciclabile","categoryLabel":"Barriera ciclabile","name":null,"osmId":"9342038817","tags":{"full_id":"n9342038817","osm_id":"9342038817","osm_type":"node","foot":"yes","bicycle":"yes","barrier":"cycle_barrier"},"bicycleAccess":"yes","bicycleAccessLabel":"Transito consentito","maxWidthMeters":null},"geometry":{"type":"Point","coordinates":[12.895215,43.89747]}},{"type":"Feature","id":"obs-22","properties":{"id":"obs-22","category":"barriera_ciclabile","categoryLabel":"Barriera ciclabile","name":null,"osmId":"9342038832","tags":{"full_id":"n9342038832","osm_id":"9342038832","osm_type":"node","foot":"yes","bicycle":"yes","barrier":"cycle_barrier"},"bicycleAccess":"yes","bicycleAccessLabel":"Transito consentito","maxWidthMeters":null},"geometry":{"type":"Point","coordinates":[12.894802,43.898823]}},{"type":"Feature","id":"obs-23","properties":{"id":"obs-23","category":"barriera_ciclabile","categoryLabel":"Barriera ciclabile","name":null,"osmId":"9342038833","tags":{"full_id":"n9342038833","osm_id":"9342038833","osm_type":"node","foot":"yes","bicycle":"yes","barrier":"cycle_barrier"},"bicycleAccess":"yes","bicycleAccessLabel":"Transito consentito","maxWidthMeters":null},"geometry":{"type":"Point","coordinates":[12.894291,43.898953]}},{"type":"Feature","id":"obs-24","properties":{"id":"obs-24","category":"barriera_ciclabile","categoryLabel":"Barriera ciclabile","name":null,"osmId":"9581701688","tags":{"full_id":"n9581701688","osm_id":"9581701688","osm_type":"node","foot":"yes","bicycle":"dismount","barrier":"cycle_barrier"},"bicycleAccess":"dismount","bicycleAccessLabel":"Obbligo di scendere dalla bici","maxWidthMeters":null},"geometry":{"type":"Point","coordinates":[12.885983,43.896256]}},{"type":"Feature","id":"obs-25","properties":{"id":"obs-25","category":"barriera_ciclabile","categoryLabel":"Barriera ciclabile","name":null,"osmId":"9593008875","tags":{"full_id":"n9593008875","osm_id":"9593008875","osm_type":"node","foot":"yes","barrier":"cycle_barrier"},"bicycleAccess":null,"bicycleAccessLabel":"Informazione non disponibile","maxWidthMeters":null},"geometry":{"type":"Point","coordinates":[12.898159,43.892136]}},{"type":"Feature","id":"obs-26","properties":{"id":"obs-26","category":"barriera_ciclabile","categoryLabel":"Barriera ciclabile","name":null,"osmId":"9895691779","tags":{"full_id":"n9895691779","osm_id":"9895691779","osm_type":"node","foot":"yes","bicycle":"dismount","barrier":"cycle_barrier"},"bicycleAccess":"dismount","bicycleAccessLabel":"Obbligo di scendere dalla bici","maxWidthMeters":null},"geometry":{"type":"Point","coordinates":[12.899428,43.918937]}},{"type":"Feature","id":"obs-27","properties":{"id":"obs-27","category":"barriera_ciclabile","categoryLabel":"Barriera ciclabile","name":null,"osmId":"11055225406","tags":{"full_id":"n11055225406","osm_id":"11055225406","osm_type":"node","barrier":"cycle_barrier"},"bicycleAccess":null,"bicycleAccessLabel":"Informazione non disponibile","maxWidthMeters":null},"geometry":{"type":"Point","coordinates":[12.893165,43.898023]}},{"type":"Feature","id":"obs-28","properties":{"id":"obs-28","category":"barriera_ciclabile","categoryLabel":"Barriera ciclabile","name":null,"osmId":"11059707339","tags":{"full_id":"n11059707339","osm_id":"11059707339","osm_type":"node","barrier":"cycle_barrier"},"bicycleAccess":null,"bicycleAccessLabel":"Informazione non disponibile","maxWidthMeters":null},"geometry":{"type":"Point","coordinates":[12.893776,43.898159]}},{"type":"Feature","id":"obs-29","properties":{"id":"obs-29","category":"barriera_ciclabile","categoryLabel":"Barriera ciclabile","name":null,"osmId":"12506615248","tags":{"full_id":"n12506615248","osm_id":"12506615248","osm_type":"node","locked":"no","barrier":"cycle_barrier"},"bicycleAccess":null,"bicycleAccessLabel":"Informazione non disponibile","maxWidthMeters":null},"geometry":{"type":"Point","coordinates":[12.920655,43.892874]}},{"type":"Feature","id":"obs-30","properties":{"id":"obs-30","category":"barriera_ciclabile","categoryLabel":"Barriera ciclabile","name":null,"osmId":"12520359508","tags":{"full_id":"n12520359508","osm_id":"12520359508","osm_type":"node","locked":"no","foot":"yes","barrier":"cycle_barrier"},"bicycleAccess":null,"bicycleAccessLabel":"Informazione non disponibile","maxWidthMeters":null},"geometry":{"type":"Point","coordinates":[12.922278,43.90333]}}]}