{"type":"FeatureCollection","features":[{"type":"Feature","id":"srv-0","properties":{"id":"srv-0","category":"negozio_bici","categoryLabel":"Negozio di biciclette","name":"Giunti Professional Bike","osmId":"1218358573","tags":{"full_id":"n1218358573","osm_id":"1218358573","osm_type":"node","shop":"bicycle","name":"Giunti Professional Bike"}},"geometry":{"type":"Point","coordinates":[12.898185,43.89957]}},{"type":"Feature","id":"srv-1","properties":{"id":"srv-1","category":"fontanella","categoryLabel":"Fontanella","name":null,"osmId":"1407171626","tags":{"full_id":"n1407171626","osm_id":"1407171626","osm_type":"node","amenity":"drinking_water"}},"geometry":{"type":"Point","coordinates":[12.900227,43.904348]}},{"type":"Feature","id":"srv-2","properties":{"id":"srv-2","category":"fontanella","categoryLabel":"Fontanella","name":null,"osmId":"1456976743","tags":{"full_id":"n1456976743","osm_id":"1456976743","osm_type":"node","amenity":"drinking_water"}},"geometry":{"type":"Point","coordinates":[12.874475,43.893691]}},{"type":"Feature","id":"srv-3","properties":{"id":"srv-3","category":"fontanella","categoryLabel":"Fontanella","name":null,"osmId":"1858572507","tags":{"full_id":"n1858572507","osm_id":"1858572507","osm_type":"node","man_made":"water_tap","check_date":"2026-03-05","amenity":"drinking_water"}},"geometry":{"type":"Point","coordinates":[12.895875,43.893707]}},{"type":"Feature","id":"srv-4","properties":{"id":"srv-4","category":"noleggio","categoryLabel":"Noleggio bici","name":"Parcheggio scambiatore San Decenzio","osmId":"2610064753","tags":{"full_id":"n2610064753","osm_id":"2610064753","osm_type":"node","operator":"Bicipolitana","network":"C'entro in Bici","addr:street":"Via Carlo Alberto Bondei","amenity":"bicycle_rental","name":"Parcheggio scambiatore San Decenzio"}},"geometry":{"type":"Point","coordinates":[12.913568,43.903381]}},{"type":"Feature","id":"srv-5","properties":{"id":"srv-5","category":"fontanella","categoryLabel":"Fontanella","name":null,"osmId":"2620081790","tags":{"full_id":"n2620081790","osm_id":"2620081790","osm_type":"node","man_made":"water_tap","check_date":"2023-11-13","amenity":"drinking_water"}},"geometry":{"type":"Point","coordinates":[12.871624,43.903326]}},{"type":"Feature","id":"srv-6","properties":{"id":"srv-6","category":"negozio_bici","categoryLabel":"Negozio di biciclette","name":"Copparo Bike Pesaro","osmId":"3312033729","tags":{"full_id":"n3312033729","osm_id":"3312033729","osm_type":"node","addr:housenumber":"1","operator":"Tommaso Vagnini","addr:street":"Via Arrigo Boito","shop":"bicycle","name":"Copparo Bike Pesaro"}},"geometry":{"type":"Point","coordinates":[12.893514,43.895993]}},{"type":"Feature","id":"srv-7","properties":{"id":"srv-7","category":"fontanella","categoryLabel":"Fontanella","name":null,"osmId":"3684318325","tags":{"full_id":"n3684318325","osm_id":"3684318325","osm_type":"node","wheelchair":"yes","man_made":"water_tap","amenity":"drinking_water"}},"geometry":{"type":"Point","coordinates":[12.917084,43.915437]}},{"type":"Feature","id":"srv-8","properties":{"id":"srv-8","category":"noleggio","categoryLabel":"Noleggio bici","name":null,"osmId":"4449899807","tags":{"full_id":"n4449899807","osm_id":"4449899807","osm_type":"node","bicycle_rental":"dropoff_point","wheelchair":"yes","network":"C'entro in Bici","amenity":"bicycle_rental"}},"geometry":{"type":"Point","coordinates":[12.914409,43.910788]}},{"type":"Feature","id":"srv-9","properties":{"id":"srv-9","category":"fontanella","categoryLabel":"Fontanella","name":null,"osmId":"5852309531","tags":{"full_id":"n5852309531","osm_id":"5852309531","osm_type":"node","fee":"no","access":"yes","amenity":"drinking_water"}},"geometry":{"type":"Point","coordinates":[12.921809,43.899015]}},{"type":"Feature","id":"srv-10","properties":{"id":"srv-10","category":"fontanella","categoryLabel":"Fontanella","name":null,"osmId":"5853586208","tags":{"full_id":"n5853586208","osm_id":"5853586208","osm_type":"node","description":"Fontanella acqua potabile","fee":"no","access":"yes","amenity":"drinking_water"}},"geometry":{"type":"Point","coordinates":[12.912804,43.903425]}},{"type":"Feature","id":"srv-11","properties":{"id":"srv-11","category":"fontanella","categoryLabel":"Fontanella","name":null,"osmId":"5853588739","tags":{"full_id":"n5853588739","osm_id":"5853588739","osm_type":"node","amenity":"drinking_water"}},"geometry":{"type":"Point","coordinates":[12.90878,43.897388]}},{"type":"Feature","id":"srv-12","properties":{"id":"srv-12","category":"fontanella","categoryLabel":"Fontanella","name":null,"osmId":"5853592049","tags":{"full_id":"n5853592049","osm_id":"5853592049","osm_type":"node","amenity":"drinking_water"}},"geometry":{"type":"Point","coordinates":[12.908051,43.901749]}},{"type":"Feature","id":"srv-13","properties":{"id":"srv-13","category":"fontanella","categoryLabel":"Fontanella","name":null,"osmId":"5853593429","tags":{"full_id":"n5853593429","osm_id":"5853593429","osm_type":"node","amenity":"drinking_water"}},"geometry":{"type":"Point","coordinates":[12.919802,43.893491]}},{"type":"Feature","id":"srv-14","properties":{"id":"srv-14","category":"fontanella","categoryLabel":"Fontanella","name":null,"osmId":"5853597242","tags":{"full_id":"n5853597242","osm_id":"5853597242","osm_type":"node","amenity":"drinking_water"}},"geometry":{"type":"Point","coordinates":[12.922469,43.891805]}},{"type":"Feature","id":"srv-15","properties":{"id":"srv-15","category":"fontanella","categoryLabel":"Fontanella","name":null,"osmId":"5853598480","tags":{"full_id":"n5853598480","osm_id":"5853598480","osm_type":"node","amenity":"drinking_water"}},"geometry":{"type":"Point","coordinates":[12.90934,43.891053]}},{"type":"Feature","id":"srv-16","properties":{"id":"srv-16","category":"fontanella","categoryLabel":"Fontanella","name":null,"osmId":"5853604120","tags":{"full_id":"n5853604120","osm_id":"5853604120","osm_type":"node","amenity":"drinking_water"}},"geometry":{"type":"Point","coordinates":[12.891527,43.897714]}},{"type":"Feature","id":"srv-17","properties":{"id":"srv-17","category":"fontanella","categoryLabel":"Fontanella","name":null,"osmId":"5853606973","tags":{"full_id":"n5853606973","osm_id":"5853606973","osm_type":"node","man_made":"water_tap","amenity":"drinking_water"}},"geometry":{"type":"Point","coordinates":[12.904024,43.904131]}},{"type":"Feature","id":"srv-18","properties":{"id":"srv-18","category":"fontanella","categoryLabel":"Fontanella","name":null,"osmId":"5853709604","tags":{"full_id":"n5853709604","osm_id":"5853709604","osm_type":"node","man_made":"water_tap","amenity":"drinking_water"}},"geometry":{"type":"Point","coordinates":[12.909743,43.909275]}},{"type":"Feature","id":"srv-19","properties":{"id":"srv-19","category":"fontanella","categoryLabel":"Fontanella","name":null,"osmId":"5856493195","tags":{"full_id":"n5856493195","osm_id":"5856493195","osm_type":"node","man_made":"water_tap","amenity":"drinking_water"}},"geometry":{"type":"Point","coordinates":[12.916021,43.909552]}},{"type":"Feature","id":"srv-20","properties":{"id":"srv-20","category":"fontanella","categoryLabel":"Fontanella","name":null,"osmId":"5856531879","tags":{"full_id":"n5856531879","osm_id":"5856531879","osm_type":"node","amenity":"drinking_water"}},"geometry":{"type":"Point","coordinates":[12.910794,43.919004]}},{"type":"Feature","id":"srv-21","properties":{"id":"srv-21","category":"fontanella","categoryLabel":"Fontanella","name":null,"osmId":"5875360807","tags":{"full_id":"n5875360807","osm_id":"5875360807","osm_type":"node","check_date":"2025-09-01","amenity":"drinking_water"}},"geometry":{"type":"Point","coordinates":[12.908307,43.909093]}},{"type":"Feature","id":"srv-22","properties":{"id":"srv-22","category":"fontanella","categoryLabel":"Fontanella","name":null,"osmId":"5909402504","tags":{"full_id":"n5909402504","osm_id":"5909402504","osm_type":"node","wheelchair":"limited","man_made":"water_tap","amenity":"drinking_water"}},"geometry":{"type":"Point","coordinates":[12.914717,43.910537]}},{"type":"Feature","id":"srv-23","properties":{"id":"srv-23","category":"fontanella","categoryLabel":"Fontanella","name":null,"osmId":"5927018058","tags":{"full_id":"n5927018058","osm_id":"5927018058","osm_type":"node","man_made":"water_tap","amenity":"drinking_water"}},"geometry":{"type":"Point","coordinates":[12.89601,43.903945]}},{"type":"Feature","id":"srv-24","properties":{"id":"srv-24","category":"officina","categoryLabel":"Officina / riparazione","name":"Velomarche","osmId":"6315132444","tags":{"full_id":"n6315132444","osm_id":"6315132444","osm_type":"node","service:bicycle:repair":"yes","service:bicycle:pump":"yes","payment:debit_cards":"yes","payment:credit_cards":"yes","payment:cash":"yes","internet_access":"no","currency:EUR":"yes","addr:postcode":"61121","check_date":"2026-02-17","shop":"bicycle","name":"Velomarche"}},"geometry":{"type":"Point","coordinates":[12.897335,43.910429]}},{"type":"Feature","id":"srv-25","properties":{"id":"srv-25","category":"parcheggio_bici","categoryLabel":"Parcheggio bici","name":null,"osmId":"6718195587","tags":{"full_id":"n6718195587","osm_id":"6718195587","osm_type":"node","covered":"no","bicycle_parking":"stands","amenity":"bicycle_parking"}},"geometry":{"type":"Point","coordinates":[12.916659,43.91502]}},{"type":"Feature","id":"srv-26","properties":{"id":"srv-26","category":"parcheggio_bici","categoryLabel":"Parcheggio bici","name":null,"osmId":"6718195591","tags":{"full_id":"n6718195591","osm_id":"6718195591","osm_type":"node","covered":"no","bicycle_parking":"stands","amenity":"bicycle_parking"}},"geometry":{"type":"Point","coordinates":[12.916698,43.915046]}},{"type":"Feature","id":"srv-27","properties":{"id":"srv-27","category":"fontanella","categoryLabel":"Fontanella","name":null,"osmId":"7637495555","tags":{"full_id":"n7637495555","osm_id":"7637495555","osm_type":"node","bottle":"yes","amenity":"drinking_water"}},"geometry":{"type":"Point","coordinates":[12.898714,43.905407]}},{"type":"Feature","id":"srv-28","properties":{"id":"srv-28","category":"fontanella","categoryLabel":"Fontanella","name":null,"osmId":"8809947591","tags":{"full_id":"n8809947591","osm_id":"8809947591","osm_type":"node","man_made":"water_tap","amenity":"drinking_water"}},"geometry":{"type":"Point","coordinates":[12.942654,43.896437]}},{"type":"Feature","id":"srv-29","properties":{"id":"srv-29","category":"fontanella","categoryLabel":"Fontanella","name":null,"osmId":"9330857698","tags":{"full_id":"n9330857698","osm_id":"9330857698","osm_type":"node","man_made":"water_tap","amenity":"drinking_water"}},"geometry":{"type":"Point","coordinates":[12.910701,43.913004]}},{"type":"Feature","id":"srv-30","properties":{"id":"srv-30","category":"parcheggio_bici","categoryLabel":"Parcheggio bici","name":null,"osmId":"9862680745","tags":{"full_id":"n9862680745","osm_id":"9862680745","osm_type":"node","capacity":"6","amenity":"bicycle_parking"}},"geometry":{"type":"Point","coordinates":[12.910482,43.912049]}},{"type":"Feature","id":"srv-31","properties":{"id":"srv-31","category":"fontanella","categoryLabel":"Fontanella","name":null,"osmId":"9862891887","tags":{"full_id":"n9862891887","osm_id":"9862891887","osm_type":"node","amenity":"drinking_water"}},"geometry":{"type":"Point","coordinates":[12.913469,43.911123]}},{"type":"Feature","id":"srv-32","properties":{"id":"srv-32","category":"negozio_bici","categoryLabel":"Negozio di biciclette","name":"Pesaro Bici di Battaglini Luca","osmId":"11528249948","tags":{"full_id":"n11528249948","osm_id":"11528249948","osm_type":"node","addr:city":"Pesaro","addr:postcode":"61121","addr:housenumber":"52","addr:street":"Viale Ventiquattro Maggio","shop":"bicycle","name":"Pesaro Bici di Battaglini Luca"}},"geometry":{"type":"Point","coordinates":[12.910163,43.905384]}},{"type":"Feature","id":"srv-33","properties":{"id":"srv-33","category":"fontanella","categoryLabel":"Fontanella","name":null,"osmId":"13594802327","tags":{"full_id":"n13594802327","osm_id":"13594802327","osm_type":"node","amenity":"drinking_water"}},"geometry":{"type":"Point","coordinates":[12.89698,43.892394]}},{"type":"Feature","id":"srv-34","properties":{"id":"srv-34","category":"fontanella","categoryLabel":"Fontanella","name":null,"osmId":"13671316806","tags":{"full_id":"n13671316806","osm_id":"13671316806","osm_type":"node","amenity":"drinking_water"}},"geometry":{"type":"Point","coordinates":[12.889034,43.899907]}}]}