{"type":"FeatureCollection","features":[{"type":"Feature","id":"svg-0","properties":{"id":"svg-0","category":"area_picnic","categoryLabel":"Area picnic","name":null,"osmId":"665747257","tags":{"full_id":"n665747257","osm_id":"665747257","osm_type":"node","tourism":"picnic_site","material":"wood","backrest":"yes","amenity":"bench"}},"geometry":{"type":"Point","coordinates":[12.893511,43.918016]}},{"type":"Feature","id":"svg-1","properties":{"id":"svg-1","category":"belvedere","categoryLabel":"Belvedere","name":null,"osmId":"1407744397","tags":{"full_id":"n1407744397","osm_id":"1407744397","osm_type":"node","tourism":"viewpoint"}},"geometry":{"type":"Point","coordinates":[12.876876,43.927509]}},{"type":"Feature","id":"svg-2","properties":{"id":"svg-2","category":"belvedere","categoryLabel":"Belvedere","name":null,"osmId":"1598118233","tags":{"full_id":"n1598118233","osm_id":"1598118233","osm_type":"node","tourism":"viewpoint"}},"geometry":{"type":"Point","coordinates":[12.947541,43.890448]}},{"type":"Feature","id":"svg-3","properties":{"id":"svg-3","category":"belvedere","categoryLabel":"Belvedere","name":null,"osmId":"2380487715","tags":{"full_id":"n2380487715","osm_id":"2380487715","osm_type":"node","wheelchair":"yes","man_made":"optical_viewer","direction":"0-90","description:it":"Binocolo panoramico con visuale sul mare","tourism":"viewpoint"}},"geometry":{"type":"Point","coordinates":[12.918865,43.914626]}},{"type":"Feature","id":"svg-4","properties":{"id":"svg-4","category":"belvedere","categoryLabel":"Belvedere","name":null,"osmId":"5037125375","tags":{"full_id":"n5037125375","osm_id":"5037125375","osm_type":"node","tourism":"viewpoint"}},"geometry":{"type":"Point","coordinates":[12.89377,43.917777]}},{"type":"Feature","id":"svg-5","properties":{"id":"svg-5","category":"belvedere","categoryLabel":"Belvedere","name":null,"osmId":"5981063978","tags":{"full_id":"n5981063978","osm_id":"5981063978","osm_type":"node","viewpoint":"binoculars","fee":"yes","wheelchair":"yes","description:it":"Binocolo con vista sul Mare Adriatico","tourism":"viewpoint"}},"geometry":{"type":"Point","coordinates":[12.917668,43.9159]}},{"type":"Feature","id":"svg-6","properties":{"id":"svg-6","category":"belvedere","categoryLabel":"Belvedere","name":null,"osmId":"13013363291","tags":{"full_id":"n13013363291","osm_id":"13013363291","osm_type":"node","tourism":"viewpoint"}},"geometry":{"type":"Point","coordinates":[12.927141,43.904193]}},{"type":"Feature","id":"svg-7","properties":{"id":"svg-7","category":"belvedere","categoryLabel":"Belvedere","name":null,"osmId":"13013364512","tags":{"full_id":"n13013364512","osm_id":"13013364512","osm_type":"node","tourism":"viewpoint"}},"geometry":{"type":"Point","coordinates":[12.927828,43.903548]}},{"type":"Feature","id":"svg-8","properties":{"id":"svg-8","category":"parco","categoryLabel":"Parco","name":null,"osmId":"13594746098","tags":{"full_id":"n13594746098","osm_id":"13594746098","osm_type":"node","leisure":"park"}},"geometry":{"type":"Point","coordinates":[12.898768,43.896088]}},{"type":"Feature","id":"svg-9","properties":{"id":"svg-9","category":"parco","categoryLabel":"Parco","name":null,"osmId":"13594793150","tags":{"full_id":"n13594793150","osm_id":"13594793150","osm_type":"node","leisure":"park"}},"geometry":{"type":"Point","coordinates":[12.901458,43.892969]}},{"type":"Feature","id":"svg-10","properties":{"id":"svg-10","category":"parco","categoryLabel":"Parco","name":null,"osmId":"13629529779","tags":{"full_id":"n13629529779","osm_id":"13629529779","osm_type":"node","leisure":"park"}},"geometry":{"type":"Point","coordinates":[12.928838,43.893998]}},{"type":"Feature","id":"svg-11","properties":{"id":"svg-11","category":"belvedere","categoryLabel":"Belvedere","name":null,"osmId":"13671323724","tags":{"full_id":"n13671323724","osm_id":"13671323724","osm_type":"node","tourism":"viewpoint"}},"geometry":{"type":"Point","coordinates":[12.940661,43.894908]}}]}